CCSDS_OMM_VERS = 2.0
CREATION_DATE  = 
ORIGINATOR     = 

OBJECT_NAME    = STARLINK-35671
OBJECT_ID      = 2025-257N
CENTER_NAME    = EARTH
REF_FRAME      = TEME
TIME_SYSTEM    = UTC
MEAN_ELEMENT_THEORY = SGP/SGP4

EPOCH          = 2025-12-09T02:54:48.330144
MEAN_MOTION    = 15.39651087
ECCENTRICITY   = .00010619
INCLINATION    = 53.1605
RA_OF_ASC_NODE = 281.4947
ARG_OF_PERICENTER = 84.7676
MEAN_ANOMALY   = 275.3450

EPHEMERIS_TYPE = 0
CLASSIFICATION_TYPE = U
NORAD_CAT_ID   = 66392
ELEMENT_SET_NO = 999
REV_AT_EPOCH   = 581
BSTAR          = .13579715E-2
MEAN_MOTION_DOT = .54362E-3
MEAN_MOTION_DDOT = 0

CCSDS_OMM_VERS = 2.0
CREATION_DATE  = 
ORIGINATOR     = 

OBJECT_NAME    = STARLINK-35652
OBJECT_ID      = 2025-257P
CENTER_NAME    = EARTH
REF_FRAME      = TEME
TIME_SYSTEM    = UTC
MEAN_ELEMENT_THEORY = SGP/SGP4

EPOCH          = 2025-12-09T16:00:01.999584
MEAN_MOTION    = 15.39476320
ECCENTRICITY   = .00009876
INCLINATION    = 53.1590
RA_OF_ASC_NODE = 278.8246
ARG_OF_PERICENTER = 101.7346
MEAN_ANOMALY   = 92.2516

EPHEMERIS_TYPE = 0
CLASSIFICATION_TYPE = U
NORAD_CAT_ID   = 66393
ELEMENT_SET_NO = 999
REV_AT_EPOCH   = 600
BSTAR          = .32394101E-2
MEAN_MOTION_DOT = .1308E-2
MEAN_MOTION_DDOT = 0

CCSDS_OMM_VERS = 2.0
CREATION_DATE  = 
ORIGINATOR     = 

OBJECT_NAME    = STARLINK-35672
OBJECT_ID      = 2025-257Q
CENTER_NAME    = EARTH
REF_FRAME      = TEME
TIME_SYSTEM    = UTC
MEAN_ELEMENT_THEORY = SGP/SGP4

EPOCH          = 2025-12-09T02:41:25.904832
MEAN_MOTION    = 15.39631651
ECCENTRICITY   = .00012385
INCLINATION    = 53.1593
RA_OF_ASC_NODE = 281.4337
ARG_OF_PERICENTER = 83.7990
MEAN_ANOMALY   = 276.3156

EPHEMERIS_TYPE = 0
CLASSIFICATION_TYPE = U
NORAD_CAT_ID   = 66394
ELEMENT_SET_NO = 999
REV_AT_EPOCH   = 581
BSTAR          = .28492606E-2
MEAN_MOTION_DOT = .115352E-2
MEAN_MOTION_DDOT = 0

CCSDS_OMM_VERS = 2.0
CREATION_DATE  = 
ORIGINATOR     = 

OBJECT_NAME    = STARLINK-35681
OBJECT_ID      = 2025-257R
CENTER_NAME    = EARTH
REF_FRAME      = TEME
TIME_SYSTEM    = UTC
MEAN_ELEMENT_THEORY = SGP/SGP4

EPOCH          = 2025-12-09T16:00:01.999584
MEAN_MOTION    = 15.39519622
ECCENTRICITY   = .00009564
INCLINATION    = 53.1596
RA_OF_ASC_NODE = 278.7733
ARG_OF_PERICENTER = 113.8160
MEAN_ANOMALY   = 105.8933

EPHEMERIS_TYPE = 0
CLASSIFICATION_TYPE = U
NORAD_CAT_ID   = 66395
ELEMENT_SET_NO = 999
REV_AT_EPOCH   = 584
BSTAR          = .24624268E-2
MEAN_MOTION_DOT = .99056E-3
MEAN_MOTION_DDOT = 0

CCSDS_OMM_VERS = 2.0
CREATION_DATE  = 
ORIGINATOR     = 

OBJECT_NAME    = STARLINK-35669
OBJECT_ID      = 2025-257S
CENTER_NAME    = EARTH
REF_FRAME      = TEME
TIME_SYSTEM    = UTC
MEAN_ELEMENT_THEORY = SGP/SGP4

EPOCH          = 2025-12-09T16:00:01.999584
MEAN_MOTION    = 15.39532933
ECCENTRICITY   = .00009152
INCLINATION    = 53.1595
RA_OF_ASC_NODE = 278.7686
ARG_OF_PERICENTER = 103.6111
MEAN_ANOMALY   = 117.9176

EPHEMERIS_TYPE = 0
CLASSIFICATION_TYPE = U
NORAD_CAT_ID   = 66396
ELEMENT_SET_NO = 999
REV_AT_EPOCH   = 600
BSTAR          = .2266553E-2
MEAN_MOTION_DOT = .91089E-3
MEAN_MOTION_DDOT = 0

CCSDS_OMM_VERS = 2.0
CREATION_DATE  = 
ORIGINATOR     = 

OBJECT_NAME    = STARLINK-35510
OBJECT_ID      = 2025-257T
CENTER_NAME    = EARTH
REF_FRAME      = TEME
TIME_SYSTEM    = UTC
MEAN_ELEMENT_THEORY = SGP/SGP4

EPOCH          = 2025-12-09T16:00:01.999584
MEAN_MOTION    = 15.39541514
ECCENTRICITY   = .00012468
INCLINATION    = 53.1598
RA_OF_ASC_NODE = 278.7215
ARG_OF_PERICENTER = 98.5508
MEAN_ANOMALY   = 146.8798

EPHEMERIS_TYPE = 0
CLASSIFICATION_TYPE = U
NORAD_CAT_ID   = 66397
ELEMENT_SET_NO = 999
REV_AT_EPOCH   = 600
BSTAR          = .21118356E-2
MEAN_MOTION_DOT = .84797E-3
MEAN_MOTION_DDOT = 0

CCSDS_OMM_VERS = 2.0
CREATION_DATE  = 
ORIGINATOR     = 

OBJECT_NAME    = STARLINK-35642
OBJECT_ID      = 2025-257U
CENTER_NAME    = EARTH
REF_FRAME      = TEME
TIME_SYSTEM    = UTC
MEAN_ELEMENT_THEORY = SGP/SGP4

EPOCH          = 2025-12-09T16:00:01.999584
MEAN_MOTION    = 15.39516880
ECCENTRICITY   = .00013184
INCLINATION    = 53.1598
RA_OF_ASC_NODE = 278.6700
ARG_OF_PERICENTER = 87.7508
MEAN_ANOMALY   = 183.4659

EPHEMERIS_TYPE = 0
CLASSIFICATION_TYPE = U
NORAD_CAT_ID   = 66398
ELEMENT_SET_NO = 999
REV_AT_EPOCH   = 600
BSTAR          = .27620658E-2
MEAN_MOTION_DOT = .111329E-2
MEAN_MOTION_DDOT = 0

CCSDS_OMM_VERS = 2.0
CREATION_DATE  = 
ORIGINATOR     = 

OBJECT_NAME    = STARLINK-35657
OBJECT_ID      = 2025-257V
CENTER_NAME    = EARTH
REF_FRAME      = TEME
TIME_SYSTEM    = UTC
MEAN_ELEMENT_THEORY = SGP/SGP4

EPOCH          = 2025-12-09T16:00:01.999584
MEAN_MOTION    = 15.39521878
ECCENTRICITY   = .00011374
INCLINATION    = 53.1598
RA_OF_ASC_NODE = 278.7173
ARG_OF_PERICENTER = 107.1564
MEAN_ANOMALY   = 140.1326

EPHEMERIS_TYPE = 0
CLASSIFICATION_TYPE = U
NORAD_CAT_ID   = 66399
ELEMENT_SET_NO = 999
REV_AT_EPOCH   = 600
BSTAR          = .24019936E-2
MEAN_MOTION_DOT = .96591E-3
MEAN_MOTION_DDOT = 0

CCSDS_OMM_VERS = 2.0
CREATION_DATE  = 
ORIGINATOR     = 

OBJECT_NAME    = STARLINK-35667
OBJECT_ID      = 2025-257W
CENTER_NAME    = EARTH
REF_FRAME      = TEME
TIME_SYSTEM    = UTC
MEAN_ELEMENT_THEORY = SGP/SGP4

EPOCH          = 2025-12-09T16:00:01.999584
MEAN_MOTION    = 15.39527187
ECCENTRICITY   = .00012486
INCLINATION    = 53.1591
RA_OF_ASC_NODE = 278.6181
ARG_OF_PERICENTER = 86.3513
MEAN_ANOMALY   = 210.6025

EPHEMERIS_TYPE = 0
CLASSIFICATION_TYPE = U
NORAD_CAT_ID   = 66400
ELEMENT_SET_NO = 999
REV_AT_EPOCH   = 600
BSTAR          = .2670549E-2
MEAN_MOTION_DOT = .10761E-2
MEAN_MOTION_DDOT = 0

CCSDS_OMM_VERS = 2.0
CREATION_DATE  = 
ORIGINATOR     = 

OBJECT_NAME    = STARLINK-35668
OBJECT_ID      = 2025-257X
CENTER_NAME    = EARTH
REF_FRAME      = TEME
TIME_SYSTEM    = UTC
MEAN_ELEMENT_THEORY = SGP/SGP4

EPOCH          = 2025-12-09T16:00:01.999584
MEAN_MOTION    = 15.39549480
ECCENTRICITY   = .00014089
INCLINATION    = 53.1592
RA_OF_ASC_NODE = 278.6141
ARG_OF_PERICENTER = 92.4494
MEAN_ANOMALY   = 206.3150

EPHEMERIS_TYPE = 0
CLASSIFICATION_TYPE = U
NORAD_CAT_ID   = 66401
ELEMENT_SET_NO = 999
REV_AT_EPOCH   = 600
BSTAR          = .21708017E-2
MEAN_MOTION_DOT = .87227E-3
MEAN_MOTION_DDOT = 0

CCSDS_OMM_VERS = 2.0
CREATION_DATE  = 
ORIGINATOR     = 

OBJECT_NAME    = STARLINK-35644
OBJECT_ID      = 2025-257Y
CENTER_NAME    = EARTH
REF_FRAME      = TEME
TIME_SYSTEM    = UTC
MEAN_ELEMENT_THEORY = SGP/SGP4

EPOCH          = 2025-12-09T16:00:01.999584
MEAN_MOTION    = 15.39551001
ECCENTRICITY   = .00012183
INCLINATION    = 53.1594
RA_OF_ASC_NODE = 278.6656
ARG_OF_PERICENTER = 96.1432
MEAN_ANOMALY   = 176.8630

EPHEMERIS_TYPE = 0
CLASSIFICATION_TYPE = U
NORAD_CAT_ID   = 66402
ELEMENT_SET_NO = 999
REV_AT_EPOCH   = 600
BSTAR          = .22625321E-2
MEAN_MOTION_DOT = .90979E-3
MEAN_MOTION_DDOT = 0

CCSDS_OMM_VERS = 2.0
CREATION_DATE  = 
ORIGINATOR     = 

OBJECT_NAME    = STARLINK-35602
OBJECT_ID      = 2025-257Z
CENTER_NAME    = EARTH
REF_FRAME      = TEME
TIME_SYSTEM    = UTC
MEAN_ELEMENT_THEORY = SGP/SGP4

EPOCH          = 2025-12-09T16:00:01.999584
MEAN_MOTION    = 15.39551040
ECCENTRICITY   = .00011674
INCLINATION    = 53.1586
RA_OF_ASC_NODE = 278.5660
ARG_OF_PERICENTER = 102.4875
MEAN_ANOMALY   = 220.1738

EPHEMERIS_TYPE = 0
CLASSIFICATION_TYPE = U
NORAD_CAT_ID   = 66403
ELEMENT_SET_NO = 999
REV_AT_EPOCH   = 600
BSTAR          = .24650141E-2
MEAN_MOTION_DOT = .99266E-3
MEAN_MOTION_DDOT = 0

