STARLINK-35671          
1 66392U 25257N   25343.12139271  .00054362  00000+0  13580-2 0  9998
2 66392  53.1605 281.4947 0001061  84.7676 275.3450 15.39651087  5814
STARLINK-35652          
1 66393U 25257P   25343.66668981  .00130800  00000+0  32394-2 0  9999
2 66393  53.1590 278.8246 0000987 101.7346  92.2516 15.39476320  6006
STARLINK-35672          
1 66394U 25257Q   25343.11210538  .00115352  00000+0  28493-2 0  9991
2 66394  53.1593 281.4337 0001238  83.7990 276.3156 15.39631651  5818
STARLINK-35681          
1 66395U 25257R   25343.66668981  .00099056  00000+0  24624-2 0  9995
2 66395  53.1596 278.7733 0000956 113.8160 105.8933 15.39519622  5846
STARLINK-35669          
1 66396U 25257S   25343.66668981  .00091089  00000+0  22666-2 0  9998
2 66396  53.1595 278.7686 0000915 103.6111 117.9176 15.39532933  6003
STARLINK-35510          
1 66397U 25257T   25343.66668981  .00084797  00000+0  21118-2 0  9998
2 66397  53.1598 278.7215 0001246  98.5508 146.8798 15.39541514  6001
STARLINK-35642          
1 66398U 25257U   25343.66668981  .00111329  00000+0  27621-2 0  9996
2 66398  53.1598 278.6700 0001318  87.7508 183.4659 15.39516880  6001
STARLINK-35657          
1 66399U 25257V   25343.66668981  .00096591  00000+0  24020-2 0  9990
2 66399  53.1598 278.7173 0001137 107.1564 140.1326 15.39521878  6009
STARLINK-35667          
1 66400U 25257W   25343.66668981  .00107610  00000+0  26705-2 0  9990
2 66400  53.1591 278.6181 0001248  86.3513 210.6025 15.39527187  6006
STARLINK-35668          
1 66401U 25257X   25343.66668981  .00087227  00000+0  21708-2 0  9990
2 66401  53.1592 278.6141 0001408  92.4494 206.3150 15.39549480  6009
STARLINK-35644          
1 66402U 25257Y   25343.66668981  .00090979  00000+0  22625-2 0  9998
2 66402  53.1594 278.6656 0001218  96.1432 176.8630 15.39551001  6001
STARLINK-35602          
1 66403U 25257Z   25343.66668981  .00099266  00000+0  24650-2 0  9997
2 66403  53.1586 278.5660 0001167 102.4875 220.1738 15.39551040  6007
